// Bennu
    orbit: {
      semi_major_axis_au: 1.125985,
      eccentricity: 0.203700,
      inclination_deg: 6.0329,
      longitude_ascending_node_deg: 1.9675,
      argument_periapsis_deg: 66.4157,
      mean_anomaly_deg_epoch: 34.4983,
      orbital_period_years: 1.1948,
    },  // JPL Horizons @ JD 2461154.5, fetched 2026-04-24

// Apophis
    orbit: {
      semi_major_axis_au: 0.922366,
      eccentricity: 0.191142,
      inclination_deg: 3.3409,
      longitude_ascending_node_deg: 203.8974,
      argument_periapsis_deg: 126.6769,
      mean_anomaly_deg_epoch: 124.1482,
      orbital_period_years: 0.8859,
    },  // JPL Horizons @ JD 2461154.5, fetched 2026-04-24

// Didymos
    orbit: {
      semi_major_axis_au: 1.642668,
      eccentricity: 0.383147,
      inclination_deg: 3.4139,
      longitude_ascending_node_deg: 72.9858,
      argument_periapsis_deg: 319.5841,
      mean_anomaly_deg_epoch: 239.3242,
      orbital_period_years: 2.1054,
    },  // JPL Horizons @ JD 2461154.5, fetched 2026-04-24

// Ryugu
    orbit: {
      semi_major_axis_au: 1.190952,
      eccentricity: 0.191092,
      inclination_deg: 5.8664,
      longitude_ascending_node_deg: 251.2906,
      argument_periapsis_deg: 211.6129,
      mean_anomaly_deg_epoch: 27.4508,
      orbital_period_years: 1.2997,
    },  // JPL Horizons @ JD 2461154.5, fetched 2026-04-24

// Itokawa
    orbit: {
      semi_major_axis_au: 1.324065,
      eccentricity: 0.280170,
      inclination_deg: 1.6209,
      longitude_ascending_node_deg: 69.0744,
      argument_periapsis_deg: 162.8432,
      mean_anomaly_deg_epoch: 140.8928,
      orbital_period_years: 1.5236,
    },  // JPL Horizons @ JD 2461154.5, fetched 2026-04-24

// Eros
    orbit: {
      semi_major_axis_au: 1.458249,
      eccentricity: 0.222891,
      inclination_deg: 10.8286,
      longitude_ascending_node_deg: 304.2681,
      argument_periapsis_deg: 178.9163,
      mean_anomaly_deg_epoch: 36.7652,
      orbital_period_years: 1.7610,
    },  // JPL Horizons @ JD 2461154.5, fetched 2026-04-24

// Psyche
    orbit: {
      semi_major_axis_au: 2.925238,
      eccentricity: 0.134781,
      inclination_deg: 3.0981,
      longitude_ascending_node_deg: 149.9845,
      argument_periapsis_deg: 229.9704,
      mean_anomaly_deg_epoch: 70.7778,
      orbital_period_years: 5.0032,
    },  // JPL Horizons @ JD 2461154.5, fetched 2026-04-24

// Ceres
    orbit: {
      semi_major_axis_au: 2.765522,
      eccentricity: 0.079669,
      inclination_deg: 10.5880,
      longitude_ascending_node_deg: 80.2486,
      argument_periapsis_deg: 73.3024,
      mean_anomaly_deg_epoch: 264.5502,
      orbital_period_years: 4.5991,
    },  // JPL Horizons @ JD 2461154.5, fetched 2026-04-24

// Vesta
    orbit: {
      semi_major_axis_au: 2.361428,
      eccentricity: 0.090189,
      inclination_deg: 7.1440,
      longitude_ascending_node_deg: 103.7018,
      argument_periapsis_deg: 151.4874,
      mean_anomaly_deg_epoch: 68.6789,
      orbital_period_years: 3.6289,
    },  // JPL Horizons @ JD 2461154.5, fetched 2026-04-24

// Geographos
    orbit: {
      semi_major_axis_au: 1.245755,
      eccentricity: 0.335492,
      inclination_deg: 13.3369,
      longitude_ascending_node_deg: 337.1358,
      argument_periapsis_deg: 277.0295,
      mean_anomaly_deg_epoch: 322.0712,
      orbital_period_years: 1.3905,
    },  // JPL Horizons @ JD 2461154.5, fetched 2026-04-24

// Toutatis
    orbit: {
      semi_major_axis_au: 2.543027,
      eccentricity: 0.624663,
      inclination_deg: 0.4481,
      longitude_ascending_node_deg: 125.3701,
      argument_periapsis_deg: 277.8570,
      mean_anomaly_deg_epoch: 114.3322,
      orbital_period_years: 4.0554,
    },  // JPL Horizons @ JD 2461154.5, fetched 2026-04-24

// Dinkinesh
    orbit: {
      semi_major_axis_au: 2.191733,
      eccentricity: 0.112647,
      inclination_deg: 2.0931,
      longitude_ascending_node_deg: 21.3578,
      argument_periapsis_deg: 66.9341,
      mean_anomaly_deg_epoch: 15.6181,
      orbital_period_years: 3.2448,
    },  // JPL Horizons @ JD 2461154.5, fetched 2026-04-24

// Annefrank
    orbit: {
      semi_major_axis_au: 2.212444,
      eccentricity: 0.063189,
      inclination_deg: 4.2474,
      longitude_ascending_node_deg: 120.5510,
      argument_periapsis_deg: 9.5222,
      mean_anomaly_deg_epoch: 247.1353,
      orbital_period_years: 3.2909,
    },  // JPL Horizons @ JD 2461154.5, fetched 2026-04-24

// Braille
    orbit: {
      semi_major_axis_au: 2.339484,
      eccentricity: 0.434075,
      inclination_deg: 29.0210,
      longitude_ascending_node_deg: 241.8991,
      argument_periapsis_deg: 356.1126,
      mean_anomaly_deg_epoch: 165.0150,
      orbital_period_years: 3.5784,
    },  // JPL Horizons @ JD 2461154.5, fetched 2026-04-24

// Gaspra
    orbit: {
      semi_major_axis_au: 2.210178,
      eccentricity: 0.173662,
      inclination_deg: 4.1048,
      longitude_ascending_node_deg: 252.9729,
      argument_periapsis_deg: 130.0237,
      mean_anomaly_deg_epoch: 99.1302,
      orbital_period_years: 3.2859,
    },  // JPL Horizons @ JD 2461154.5, fetched 2026-04-24

// Ida
    orbit: {
      semi_major_axis_au: 2.863545,
      eccentricity: 0.046051,
      inclination_deg: 1.1303,
      longitude_ascending_node_deg: 323.5370,
      argument_periapsis_deg: 113.4470,
      mean_anomaly_deg_epoch: 40.1171,
      orbital_period_years: 4.8458,
    },  // JPL Horizons @ JD 2461154.5, fetched 2026-04-24

// Tempel 1
    orbit: {
      semi_major_axis_au: 3.302522,
      eccentricity: 0.466408,
      inclination_deg: 10.5053,
      longitude_ascending_node_deg: 66.9569,
      argument_periapsis_deg: 184.5345,
      mean_anomaly_deg_epoch: 251.9386,
      orbital_period_years: 6.0017,
    },  // JPL Horizons @ JD 2461154.5, fetched 2026-04-24

// 67P / Churyumov-Gerasimenko
    orbit: {
      semi_major_axis_au: 3.458829,
      eccentricity: 0.649607,
      inclination_deg: 3.8666,
      longitude_ascending_node_deg: 36.2965,
      argument_periapsis_deg: 22.2338,
      mean_anomaly_deg_epoch: 250.2255,
      orbital_period_years: 6.4328,
    },  // JPL Horizons @ JD 2461154.5, fetched 2026-04-24
